NORAD_CAT_ID,OBJECT_NAME,OBJECT_TYPE,EPOCH,MEAN_MOTION,ECCENTRICITY,INCLINATION,RA_OF_ASC_NODE,ARG_OF_PERICENTER,MEAN_ANOMALY,BSTAR,MEAN_MOTION_DOT,MEAN_MOTION_DDOT,TLE_LINE0,TLE_LINE1,TLE_LINE2,SEMIMAJOR_AXIS,PERIOD,APOGEE,PERIGEE,DECAYED
53927.0,STARLINK-5008,PAYLOAD,2023-02-14 22:48:22,15.08826383,0.0001512,53.2188,291.3247,78.6924,281.4238,-8.7082e-05,-1.673e-05,0.0,0 STARLINK-5008,1 53927U 22119AT  23045.95026094 -.00001673  00000-0 -87082-4 0  9998,2 53927  53.2188 291.3247 0001512  78.6924 281.4238 15.08826383 23005,6917.922,95.438,540.833,538.741,0.0
53927.0,STARLINK-5008,PAYLOAD,2023-02-15 16:17:35,15.08848988,0.0001583,53.2205,288.0535,80.2464,279.8707,0.00011338,1.517e-05,0.0,0 STARLINK-5008,1 53927U 22119AT  23046.67888036  .00001517  00000-0  11338-3 0  9995,2 53927  53.2205 288.0535 0001583  80.2464 279.8707 15.08848988 22695,6917.853,95.437,540.813,538.623,0.0
53927.0,STARLINK-5008,PAYLOAD,2023-02-15 21:03:43,15.08863796,0.0001527,53.218,287.1612,85.6928,274.4238,0.00023671,3.484e-05,0.0,0 STARLINK-5008,1 53927U 22119AT  23046.87758543  .00003484  00000-0  23671-3 0  9994,2 53927  53.2180 287.1612 0001527  85.6928 274.4238 15.08863796 23140,6917.808,95.436,540.729,538.616,0.0
53927.0,STARLINK-5008,PAYLOAD,2023-02-15 22:39:06,15.08873283,0.0001453,53.2183,286.864,87.9303,272.1855,0.0001643,2.33e-05,0.0,0 STARLINK-5008,1 53927U 22119AT  23046.94382197  .00002330  00000-0  16430-3 0  9994,2 53927  53.2183 286.8640 0001453  87.9303 272.1855 15.08873283 22736,6917.779,95.435,540.649,538.639,0.0
53927.0,STARLINK-5008,PAYLOAD,2023-02-16 14:32:59,15.0883398,0.0001587,53.2193,283.891,75.7274,284.3894,0.00012733,1.739e-05,0.0,0 STARLINK-5008,1 53927U 22119AT  23047.60624451  .00001739  00000-0  12733-3 0  9994,2 53927  53.2193 283.8910 0001587  75.7274 284.3894 15.08833980 23250,6917.899,95.438,540.862,538.666,0.0
53927.0,STARLINK-5008,PAYLOAD,2023-02-16 16:08:22,15.08835198,0.0001416,53.2199,283.5934,101.6221,258.493,0.00010373,1.363e-05,0.0,0 STARLINK-5008,1 53927U 22119AT  23047.67248309  .00001363  00000-0  10373-3 0  9996,2 53927  53.2199 283.5934 0001416 101.6221 258.4930 15.08835198 22841,6917.895,95.438,540.74,538.78,0.0
53927.0,STARLINK-5008,PAYLOAD,2023-02-17 00:05:17,15.08851445,0.000139,53.2187,282.1066,99.6042,260.5107,-5.923e-06,-3.82e-06,0.0,0 STARLINK-5008,1 53927U 22119AT  23048.00367691 -.00000382  00000-0 -59230-5 0  9999,2 53927  53.2187 282.1066 0001390  99.6042 260.5107 15.08851445 22895,6917.845,95.437,540.672,538.749,0.0
53927.0,STARLINK-5008,PAYLOAD,2023-02-17 08:02:14,15.08841447,0.0001562,53.2182,280.6205,85.6071,274.51,-8.537e-05,-1.646e-05,0.0,0 STARLINK-5008,1 53927U 22119AT  23048.33488495 -.00001646  00000-0 -85370-4 0  9998,2 53927  53.2182 280.6205 0001562  85.6071 274.5100 15.08841447 22941,6917.876,95.437,540.822,538.66,0.0
53927.0,STARLINK-5008,PAYLOAD,2023-02-17 22:20:43,15.08838487,0.0001258,53.2181,277.9455,98.09,262.0235,-0.00030201,-5.091e-05,0.0,0 STARLINK-5008,1 53927U 22119AT  23048.93105464 -.00005091  00000-0 -30201-3 0  9996,2 53927  53.2181 277.9455 0001258  98.0900 262.0235 15.08838487 23455,6917.885,95.438,540.62,538.88,0.0
53927.0,STARLINK-5008,PAYLOAD,2023-02-18 07:53:01,15.08845445,0.000142,53.2194,276.1613,92.6614,267.4541,-0.00025912,-4.41e-05,0.0,0 STARLINK-5008,1 53927U 22119AT  23049.32848892 -.00004410  00000-0 -25912-3 0  9996,2 53927  53.2194 276.1613 0001420  92.6614 267.4541 15.08845445 23090,6917.864,95.437,540.711,538.746,0.0
53927.0,STARLINK-5008,PAYLOAD,2023-02-18 14:14:34,15.08834793,0.0001249,53.2194,274.9697,100.6125,259.5008,-6.8786e-05,-1.382e-05,0.0,0 STARLINK-5008,1 53927U 22119AT  23049.59345135 -.00001382  00000-0 -68786-4 0  9999,2 53927  53.2194 274.9697 0001249 100.6125 259.5008 15.08834793 23559,6917.896,95.438,540.625,538.897,0.0
53927.0,STARLINK-5008,PAYLOAD,2023-02-19 07:43:47,15.08845949,0.0001163,53.2186,271.6994,96.2904,263.8221,8.0735e-06,-1.59e-06,0.0,0 STARLINK-5008,1 53927U 22119AT  23050.32208081 -.00000159  00000-0  80735-5 0  9999,2 53927  53.2186 271.6994 0001163  96.2904 263.8221 15.08845949 23240,6917.862,95.437,540.532,538.923,0.0
53927.0,STARLINK-5008,PAYLOAD,2023-02-19 20:26:53,15.0883712,0.0001101,53.2181,269.3201,83.1887,276.923,9.3659e-05,1.203e-05,0.0,0 STARLINK-5008,1 53927U 22119AT  23050.85200533  .00001203  00000-0  93659-4 0  9999,2 53927  53.2181 269.3201 0001101  83.1887 276.9230 15.08837120 23323,6917.889,95.438,540.516,538.993,0.0
53927.0,STARLINK-5008,PAYLOAD,2023-02-20 13:56:08,15.08828748,0.0001225,53.2186,266.05,86.7989,273.3143,0.00011689,1.572e-05,0.0,0 STARLINK-5008,1 53927U 22119AT  23051.58065003  .00001572  00000-0  11689-3 0  9992,2 53927  53.2186 266.0500 0001225  86.7989 273.3143 15.08828748 23851,6917.915,95.438,540.627,538.932,0.0
53927.0,STARLINK-5008,PAYLOAD,2023-02-21 07:25:22,15.08844505,0.0001085,53.2165,262.7785,88.0336,272.078,-6.3511e-05,-1.299e-05,0.0,0 STARLINK-5008,1 53927U 22119AT  23052.30928409 -.00001299  00000-0 -63511-4 0  9991,2 53927  53.2165 262.7785 0001085  88.0336 272.0780 15.08844505 23549,6917.867,95.437,540.482,538.981,0.0
53927.0,STARLINK-5008,PAYLOAD,2023-02-21 13:46:54,15.08842188,0.0001192,53.217,261.5893,82.3951,277.7176,-5.5167e-06,-3.76e-06,0.0,0 STARLINK-5008,1 53927U 22119AT  23052.57424328 -.00000376  00000-0 -55167-5 0  9995,2 53927  53.2170 261.5893 0001192  82.3951 277.7176 15.08842188 24009,6917.874,95.437,540.563,538.914,0.0
53927.0,STARLINK-5008,PAYLOAD,2023-02-21 20:08:27,15.08843164,0.0001203,53.2169,260.3999,81.9787,278.1341,-7.7069e-06,-4.11e-06,0.0,0 STARLINK-5008,1 53927U 22119AT  23052.83920197 -.00000411  00000-0 -77069-5 0  9994,2 53927  53.2169 260.3999 0001203  81.9787 278.1341 15.08843164 24044,6917.871,95.437,540.568,538.903,0.0
53927.0,STARLINK-5008,PAYLOAD,2023-02-21 23:19:12,15.08848406,0.0001176,53.2162,259.8042,95.7922,264.3204,-6.7381e-06,-3.95e-06,0.0,0 STARLINK-5008,1 53927U 22119AT  23052.97167769 -.00000395  00000-0 -67381-5 0  9994,2 53927  53.2162 259.8042 0001176  95.7922 264.3204 15.08848406 23646,6917.855,95.437,540.533,538.906,0.0
53927.0,STARLINK-5008,PAYLOAD,2023-02-22 13:37:41,15.08835051,0.0001294,53.2152,257.1265,87.8258,272.2882,-1.0836e-05,-4.6e-06,0.0,0 STARLINK-5008,1 53927U 22119AT  23053.56784537 -.00000460  00000-0 -10836-4 0  9993,2 53927  53.2152 257.1265 0001294  87.8258 272.2882 15.08835051 24157,6917.896,95.438,540.656,538.865,0.0
53927.0,STARLINK-5008,PAYLOAD,2023-02-22 19:59:14,15.08836723,0.0001265,53.2153,255.937,88.3298,271.7839,1.0365e-05,-1.23e-06,0.0,0 STARLINK-5008,1 53927U 22119AT  23053.83280373 -.00000123  00000-0  10365-4 0  9994,2 53927  53.2153 255.9370 0001265  88.3298 271.7839 15.08836723 23779,6917.89,95.438,540.631,538.88,0.0
53927.0,STARLINK-5008,PAYLOAD,2023-02-23 13:28:28,15.08840425,0.0001259,53.2162,252.6673,83.7846,276.329,3.4532e-07,-2.82e-06,0.0,0 STARLINK-5008,1 53927U 22119AT  23054.56144154 -.00000282  00000-0  34532-6 0  9991,2 53927  53.2162 252.6673 0001259  83.7846 276.3290 15.08840425 24306,6917.879,95.438,540.615,538.873,0.0
53927.0,STARLINK-5008,PAYLOAD,2023-02-23 19:50:00,15.08845655,0.0001126,53.2161,251.4773,85.1986,274.9135,4.2529e-05,3.89e-06,0.0,0 STARLINK-5008,1 53927U 22119AT  23054.82639591  .00000389  00000-0  42529-4 0  9994,2 53927  53.2161 251.4773 0001126  85.1986 274.9135 15.08845655 23926,6917.863,95.437,540.507,538.949,0.0
53927.0,STARLINK-5008,PAYLOAD,2023-02-24 11:43:52,15.08834383,0.000121,53.2154,248.5045,84.5424,275.5706,-1.1957e-05,-4.78e-06,0.0,0 STARLINK-5008,1 53927U 22119AT  23055.48880499 -.00000478  00000-0 -11957-4 0  9994,2 53927  53.2154 248.5045 0001210  84.5424 275.5706 15.08834383 24020,6917.898,95.438,540.6,538.925,0.0
53927.0,STARLINK-5008,PAYLOAD,2023-02-24 13:19:15,15.08834125,0.0001092,53.2169,248.2069,81.123,278.9885,-1.9736e-05,-6.02e-06,0.0,0 STARLINK-5008,1 53927U 22119AT  23055.55504604 -.00000602  00000-0 -19736-4 0  9995,2 53927  53.2169 248.2069 0001092  81.1230 278.9885 15.08834125 24451,6917.898,95.438,540.519,539.008,0.0
53927.0,STARLINK-5008,PAYLOAD,2023-02-24 19:40:48,15.0883433,9.19e-05,53.2171,247.0173,86.7285,273.3812,-1.3867e-05,-5.08e-06,0.0,0 STARLINK-5008,1 53927U 22119AT  23055.82000615 -.00000508  00000-0 -13867-4 0  9992,2 53927  53.2171 247.0173 0000919  86.7285 273.3812 15.08834330 24496,6917.898,95.438,540.398,539.127,0.0
53927.0,STARLINK-5008,PAYLOAD,2023-02-25 19:31:35,15.08836214,0.0001038,53.2174,242.5573,89.8077,270.3034,-6.995e-05,-1.401e-05,0.0,0 STARLINK-5008,1 53927U 22119AT  23056.81361037 -.00001401  00000-0 -69950-4 0  9997,2 53927  53.2174 242.5573 0001038  89.8077 270.3034 15.08836214 24226,6917.892,95.438,540.475,539.039,0.0
53927.0,STARLINK-5008,PAYLOAD,2023-02-25 21:06:58,15.08837957,0.0001051,53.2169,242.2594,87.654,272.4572,-5.6321e-05,-1.184e-05,0.0,0 STARLINK-5008,1 53927U 22119AT  23056.87984904 -.00001184  00000-0 -56321-4 0  9993,2 53927  53.2169 242.2594 0001051  87.6540 272.4572 15.08837957 24658,6917.887,95.438,540.479,539.025,0.0
53927.0,STARLINK-5008,PAYLOAD,2023-02-26 11:25:27,15.08832875,0.0001033,53.217,239.5829,89.0852,271.0258,1.4596e-05,-5.5e-07,0.0,0 STARLINK-5008,1 53927U 22119AT  23057.47601157 -.00000055  00000-0  14596-4 0  9999,2 53927  53.2170 239.5829 0001033  89.0852 271.0258 15.08832875 24742,6917.902,95.438,540.482,539.053,0.0
53927.0,STARLINK-5008,PAYLOAD,2023-02-26 20:57:45,15.08840658,0.0001097,53.217,237.7991,90.5358,269.576,7.8869e-05,9.68e-06,0.0,0 STARLINK-5008,1 53927U 22119AT  23057.87344507  .00000968  00000-0  78869-4 0  9991,2 53927  53.2170 237.7991 0001097  90.5358 269.5760 15.08840658 24805,6917.878,95.438,540.502,538.984,0.0
53927.0,STARLINK-5008,PAYLOAD,2023-02-27 19:13:09,15.08843711,0.0001131,53.217,233.6359,87.7663,272.3458,6.9425e-05,8.17e-06,0.0,0 STARLINK-5008,1 53927U 22119AT  23058.80080256  .00000817  00000-0  69425-4 0  9994,2 53927  53.2170 233.6359 0001131  87.7663 272.3458 15.08843711 24948,6917.869,95.437,540.516,538.952,0.0
